start=new Date('2022-06-02T00:00:00.000Z').valueOf();
sats=[{"TLE_LINE2":"2 48395  53.0577  43.6329 0001937  68.0984 292.0210 15.03945811 60975","ARG_OF_PERICENTER":"68.0984","OBJECT_TYPE":"PAYLOAD","APOAPSIS":"556.088","CLASSIFICATION_TYPE":"U","PERIAPSIS":"553.403","BSTAR":"0.00028140000000","PERIOD":"95.748","GP_ID":"205125394","SEMIMAJOR_AXIS":"6932.881","TLE_LINE1":"1 48395U 21038AU  22152.69052400  .00003651  00000-0  28140-3 0  9994","MEAN_MOTION_DDOT":"0.0000000000000","ECCENTRICITY":"0.00019370","MEAN_ELEMENT_THEORY":"SGP4","MEAN_ANOMALY":"292.0210","NORAD_CAT_ID":"48395","ELEMENT_SET_NO":"999","COUNTRY_CODE":"US","RA_OF_ASC_NODE":"43.6329","CENTER_NAME":"EARTH","MEAN_MOTION_DOT":"0.00003651","FILE":"3476255","MEAN_MOTION":"15.03945811","RCS_SIZE":"LARGE","TIME_SYSTEM":"UTC","INCLINATION":"53.0577","DECAY_DATE":null,"SITE":"AFETR","LAUNCH_DATE":"2021-05-04","REV_AT_EPOCH":"6097","OBJECT_ID":"2021-038AU","OBJECT_NAME":"STARLINK-2574","REF_FRAME":"TEME","EPHEMERIS_TYPE":"0","EPOCH":"2022-06-01T16:34:21.273600"},{"GP_ID":"205125121","SEMIMAJOR_AXIS":"6925.328","TLE_LINE1":"1 48396U 21038AV  22152.72879925  .00001180  00000-0  98075-4 0  9998","MEAN_MOTION_DDOT":"0.0000000000000","ECCENTRICITY":"0.00018830","NORAD_CAT_ID":"48396","ELEMENT_SET_NO":"999","MEAN_ELEMENT_THEORY":"SGP4","MEAN_ANOMALY":"300.9174","COUNTRY_CODE":"US","ARG_OF_PERICENTER":"59.2000","TLE_LINE2":"2 48396  53.0570  43.0472 0001883  59.2000 300.9174 15.06406607 60980","OBJECT_TYPE":"PAYLOAD","PERIAPSIS":"545.889","APOAPSIS":"548.497","CLASSIFICATION_TYPE":"U","PERIOD":"95.592","BSTAR":"0.00009807500000","DECAY_DATE":null,"SITE":"AFETR","LAUNCH_DATE":"2021-05-04","REV_AT_EPOCH":"6098","OBJECT_ID":"2021-038AV","EPHEMERIS_TYPE":"0","REF_FRAME":"TEME","EPOCH":"2022-06-01T17:29:28.255200","OBJECT_NAME":"STARLINK-2575","RA_OF_ASC_NODE":"43.0472","MEAN_MOTION_DOT":"0.00001180","CENTER_NAME":"EARTH","FILE":"3476255","MEAN_MOTION":"15.06406607","TIME_SYSTEM":"UTC","RCS_SIZE":"LARGE","INCLINATION":"53.0570"},{"MEAN_ANOMALY":"284.8631","MEAN_ELEMENT_THEORY":"SGP4","ELEMENT_SET_NO":"999","NORAD_CAT_ID":"48397","COUNTRY_CODE":"US","GP_ID":"205123894","SEMIMAJOR_AXIS":"6925.429","TLE_LINE1":"1 48397U 21038AW  22152.72511740  .00008226  00000-0  57088-3 0  9993","ECCENTRICITY":"0.00013080","MEAN_MOTION_DDOT":"0.0000000000000","APOAPSIS":"548.200","CLASSIFICATION_TYPE":"U","PERIAPSIS":"546.388","BSTAR":"0.00057088000000","PERIOD":"95.594","TLE_LINE2":"2 48397  53.0565  43.0608 0001308  75.2503 284.8631 15.06373860 60986","ARG_OF_PERICENTER":"75.2503","OBJECT_TYPE":"PAYLOAD","REV_AT_EPOCH":"6098","OBJECT_ID":"2021-038AW","LAUNCH_DATE":"2021-05-04","OBJECT_NAME":"STARLINK-2590","EPOCH":"2022-06-01T17:24:10.143360","REF_FRAME":"TEME","EPHEMERIS_TYPE":"0","DECAY_DATE":null,"SITE":"AFETR","MEAN_MOTION":"15.06373860","FILE":"3476255","INCLINATION":"53.0565","RCS_SIZE":"LARGE","TIME_SYSTEM":"UTC","RA_OF_ASC_NODE":"43.0608","MEAN_MOTION_DOT":"0.00008226","CENTER_NAME":"EARTH"},{"COUNTRY_CODE":"US","NORAD_CAT_ID":"48398","ELEMENT_SET_NO":"999","MEAN_ELEMENT_THEORY":"SGP4","MEAN_ANOMALY":"302.9974","TLE_LINE1":"1 48398U 21038AX  22152.85412085  .00002138  00000-0  16243-3 0  9994","ECCENTRICITY":"0.00018380","MEAN_MOTION_DDOT":"0.0000000000000","GP_ID":"205124642","SEMIMAJOR_AXIS":"6925.361","PERIOD":"95.592","BSTAR":"0.00016243000000","PERIAPSIS":"545.953","CLASSIFICATION_TYPE":"U","APOAPSIS":"548.499","OBJECT_TYPE":"PAYLOAD","ARG_OF_PERICENTER":"57.1192","TLE_LINE2":"2 48398  53.0555  42.4778 0001838  57.1192 302.9974 15.06396035 61003","REF_FRAME":"TEME","EPHEMERIS_TYPE":"0","EPOCH":"2022-06-01T20:29:56.041440","OBJECT_NAME":"STARLINK-2588","LAUNCH_DATE":"2021-05-04","OBJECT_ID":"2021-038AX","REV_AT_EPOCH":"6100","SITE":"AFETR","DECAY_DATE":null,"RCS_SIZE":"LARGE","TIME_SYSTEM":"UTC","INCLINATION":"53.0555","MEAN_MOTION":"15.06396035","FILE":"3476255","MEAN_MOTION_DOT":"0.00002138","CENTER_NAME":"EARTH","RA_OF_ASC_NODE":"42.4778"},{"PERIAPSIS":"545.963","APOAPSIS":"548.489","CLASSIFICATION_TYPE":"U","PERIOD":"95.592","BSTAR":"0.00015239000000","ARG_OF_PERICENTER":"55.2638","TLE_LINE2":"2 48399  53.0563  43.0995 0001824  55.2638 304.8523 15.06395922 60970","OBJECT_TYPE":"PAYLOAD","NORAD_CAT_ID":"48399","ELEMENT_SET_NO":"999","MEAN_ELEMENT_THEORY":"SGP4","MEAN_ANOMALY":"304.8523","COUNTRY_CODE":"US","SEMIMAJOR_AXIS":"6925.361","GP_ID":"205124895","TLE_LINE1":"1 48399U 21038AY  22152.71774407  .00001989  00000-0  15239-3 0  9996","MEAN_MOTION_DDOT":"0.0000000000000","ECCENTRICITY":"0.00018240","FILE":"3476255","MEAN_MOTION":"15.06395922","RCS_SIZE":"LARGE","TIME_SYSTEM":"UTC","INCLINATION":"53.0563","RA_OF_ASC_NODE":"43.0995","CENTER_NAME":"EARTH","MEAN_MOTION_DOT":"0.00001989","LAUNCH_DATE":"2021-05-04","REV_AT_EPOCH":"6097","OBJECT_ID":"2021-038AY","REF_FRAME":"TEME","EPHEMERIS_TYPE":"0","EPOCH":"2022-06-01T17:13:33.087648","OBJECT_NAME":"STARLINK-2587","DECAY_DATE":null,"SITE":"AFETR"},{"TLE_LINE2":"2 48400  53.0562  43.1152 0002055  57.8332 302.2856 15.06400905 59768","ARG_OF_PERICENTER":"57.8332","OBJECT_TYPE":"PAYLOAD","CLASSIFICATION_TYPE":"U","APOAPSIS":"548.634","PERIAPSIS":"545.788","BSTAR":"0.00022107000000","PERIOD":"95.592","SEMIMAJOR_AXIS":"6925.346","GP_ID":"205125621","ECCENTRICITY":"0.00020550","TLE_LINE1":"1 48400U 21038AZ  22152.71405290  .00003013  00000-0  22107-3 0  9992","MEAN_MOTION_DDOT":"0.0000000000000","MEAN_ANOMALY":"302.2856","MEAN_ELEMENT_THEORY":"SGP4","ELEMENT_SET_NO":"999","NORAD_CAT_ID":"48400","COUNTRY_CODE":"US","RA_OF_ASC_NODE":"43.1152","MEAN_MOTION_DOT":"0.00003013","CENTER_NAME":"EARTH","MEAN_MOTION":"15.06400905","FILE":"3476255","INCLINATION":"53.0562","TIME_SYSTEM":"UTC","RCS_SIZE":"LARGE","DECAY_DATE":null,"SITE":"AFETR","REV_AT_EPOCH":"5976","OBJECT_ID":"2021-038AZ","LAUNCH_DATE":"2021-05-04","OBJECT_NAME":"STARLINK-2576","EPOCH":"2022-06-01T17:08:14.170560","EPHEMERIS_TYPE":"0","REF_FRAME":"TEME"},{"OBJECT_TYPE":"PAYLOAD","TLE_LINE2":"2 48401  53.0544  42.3619 0001825  54.4444 305.6715 15.06413523 59782","ARG_OF_PERICENTER":"54.4444","BSTAR":"0.00040573000000","PERIOD":"95.591","APOAPSIS":"548.436","CLASSIFICATION_TYPE":"U","PERIAPSIS":"545.908","TLE_LINE1":"1 48401U 21038BA  22152.88360837  .00005769  00000-0  40573-3 0  9995","ECCENTRICITY":"0.00018250","MEAN_MOTION_DDOT":"0.0000000000000","SEMIMAJOR_AXIS":"6925.307","GP_ID":"205124393","COUNTRY_CODE":"US","MEAN_ANOMALY":"305.6715","MEAN_ELEMENT_THEORY":"SGP4","ELEMENT_SET_NO":"999","NORAD_CAT_ID":"48401","CENTER_NAME":"EARTH","MEAN_MOTION_DOT":"0.00005769","RA_OF_ASC_NODE":"42.3619","INCLINATION":"53.0544","RCS_SIZE":"LARGE","TIME_SYSTEM":"UTC","FILE":"3476255","MEAN_MOTION":"15.06413523","SITE":"AFETR","DECAY_DATE":null,"OBJECT_NAME":"STARLINK-2571","EPOCH":"2022-06-01T21:12:23.763168","REF_FRAME":"TEME","EPHEMERIS_TYPE":"0","REV_AT_EPOCH":"5978","OBJECT_ID":"2021-038BA","LAUNCH_DATE":"2021-05-04"},{"MEAN_MOTION_DDOT":"0.0000000000000","TLE_LINE1":"1 48402U 21038BB  22152.84306730  .00002717  00000-0  20118-3 0  9997","ECCENTRICITY":"0.00019070","GP_ID":"205124144","SEMIMAJOR_AXIS":"6925.335","COUNTRY_CODE":"US","MEAN_ELEMENT_THEORY":"SGP4","MEAN_ANOMALY":"302.4305","NORAD_CAT_ID":"48402","ELEMENT_SET_NO":"999","OBJECT_TYPE":"PAYLOAD","TLE_LINE2":"2 48402  53.0561  42.5352 0001907  57.6868 302.4305 15.06404375 59789","ARG_OF_PERICENTER":"57.6868","BSTAR":"0.00020118000000","PERIOD":"95.592","CLASSIFICATION_TYPE":"U","APOAPSIS":"548.521","PERIAPSIS":"545.879","SITE":"AFETR","DECAY_DATE":null,"OBJECT_NAME":"STARLINK-2560","EPHEMERIS_TYPE":"0","REF_FRAME":"TEME","EPOCH":"2022-06-01T20:14:01.014720","LAUNCH_DATE":"2021-05-04","OBJECT_ID":"2021-038BB","REV_AT_EPOCH":"5978","MEAN_MOTION_DOT":"0.00002717","CENTER_NAME":"EARTH","RA_OF_ASC_NODE":"42.5352","TIME_SYSTEM":"UTC","RCS_SIZE":"LARGE","INCLINATION":"53.0561","FILE":"3476255","MEAN_MOTION":"15.06404375"},{"NORAD_CAT_ID":"48403","ELEMENT_SET_NO":"999","MEAN_ELEMENT_THEORY":"SGP4","MEAN_ANOMALY":"294.8986","COUNTRY_CODE":"US","GP_ID":"205125395","SEMIMAJOR_AXIS":"6925.351","MEAN_MOTION_DDOT":"0.0000000000000","TLE_LINE1":"1 48403U 21038BC  22152.70668809  .00001292  00000-0  10562-3 0  9990","ECCENTRICITY":"0.00015420","PERIAPSIS":"546.148","CLASSIFICATION_TYPE":"U","APOAPSIS":"548.284","PERIOD":"95.592","BSTAR":"0.00010562000000","ARG_OF_PERICENTER":"65.2163","TLE_LINE2":"2 48403  53.0578  43.1388 0001542  65.2163 294.8986 15.06399165 59769","OBJECT_TYPE":"PAYLOAD","LAUNCH_DATE":"2021-05-04","REV_AT_EPOCH":"5976","OBJECT_ID":"2021-038BC","EPHEMERIS_TYPE":"0","REF_FRAME":"TEME","EPOCH":"2022-06-01T16:57:37.850976","OBJECT_NAME":"STARLINK-2561","DECAY_DATE":null,"SITE":"AFETR","MEAN_MOTION":"15.06399165","FILE":"3476255","RCS_SIZE":"LARGE","TIME_SYSTEM":"UTC","INCLINATION":"53.0578","RA_OF_ASC_NODE":"43.1388","CENTER_NAME":"EARTH","MEAN_MOTION_DOT":"0.00001292"},{"PERIAPSIS":"546.036","APOAPSIS":"548.384","CLASSIFICATION_TYPE":"U","PERIOD":"95.592","BSTAR":"0.00012302000000","ARG_OF_PERICENTER":"64.3960","TLE_LINE2":"2 48404  53.0569  43.1617 0001695  64.3960 295.7204 15.06401067 59767","OBJECT_TYPE":"PAYLOAD","ELEMENT_SET_NO":"999","NORAD_CAT_ID":"48404","MEAN_ANOMALY":"295.7204","MEAN_ELEMENT_THEORY":"SGP4","COUNTRY_CODE":"US","GP_ID":"205125122","SEMIMAJOR_AXIS":"6925.345","ECCENTRICITY":"0.00016950","TLE_LINE1":"1 48404U 21038BD  22152.70299406  .00001551  00000-0  12302-3 0  9996","MEAN_MOTION_DDOT":"0.0000000000000","MEAN_MOTION":"15.06401067","FILE":"3476255","INCLINATION":"53.0569","TIME_SYSTEM":"UTC","RCS_SIZE":"LARGE","RA_OF_ASC_NODE":"43.1617","MEAN_MOTION_DOT":"0.00001551","CENTER_NAME":"EARTH","OBJECT_ID":"2021-038BD","REV_AT_EPOCH":"5976","LAUNCH_DATE":"2021-05-04","EPOCH":"2022-06-01T16:52:18.686784","REF_FRAME":"TEME","EPHEMERIS_TYPE":"0","OBJECT_NAME":"STARLINK-2593","DECAY_DATE":null,"SITE":"AFETR"}];
